start=new Date('2022-08-30T00:00:00.000Z').valueOf();
sats=[{"TIME_SYSTEM":"UTC","COUNTRY_CODE":"US","PERIOD":"95.593","APOAPSIS":"548.186","CLASSIFICATION_TYPE":"U","NORAD_CAT_ID":"45098","OBJECT_TYPE":"PAYLOAD","MEAN_MOTION_DDOT":"0.0000000000000","LAUNCH_DATE":"2020-01-29","EPOCH":"2022-08-29T10:57:01.312416","RA_OF_ASC_NODE":"269.7122","OBJECT_ID":"2020-006BG","REV_AT_EPOCH":"14285","BSTAR":"-0.00001890000000","MEAN_MOTION_DOT":"-0.00000563","SEMIMAJOR_AXIS":"6925.368","PERIAPSIS":"546.280","TLE_LINE2":"2 45098  53.0534 269.7122 0001376  87.9475 272.1671 15.06393675142855","GP_ID":"211251917","ECCENTRICITY":"0.00013760","RCS_SIZE":"LARGE","MEAN_ANOMALY":"272.1671","ARG_OF_PERICENTER":"87.9475","OBJECT_NAME":"STARLINK-1184","FILE":"3550737","INCLINATION":"53.0534","ELEMENT_SET_NO":"999","MEAN_ELEMENT_THEORY":"SGP4","REF_FRAME":"TEME","EPHEMERIS_TYPE":"0","CENTER_NAME":"EARTH","TLE_LINE1":"1 45098U 20006BG  22241.45626519 -.00000563  00000-0 -18900-4 0  9991","MEAN_MOTION":"15.06393675","DECAY_DATE":null,"SITE":"AFETR"},{"CLASSIFICATION_TYPE":"U","APOAPSIS":"548.288","COUNTRY_CODE":"US","PERIOD":"95.592","TIME_SYSTEM":"UTC","REV_AT_EPOCH":"14286","BSTAR":"-0.00001378900000","MEAN_MOTION_DOT":"-0.00000487","SEMIMAJOR_AXIS":"6925.345","PERIAPSIS":"546.133","OBJECT_ID":"2020-006BH","MEAN_MOTION_DDOT":"0.0000000000000","EPOCH":"2022-08-29T11:44:46.948992","LAUNCH_DATE":"2020-01-29","RA_OF_ASC_NODE":"269.5871","NORAD_CAT_ID":"45099","OBJECT_TYPE":"PAYLOAD","MEAN_ANOMALY":"291.5629","ARG_OF_PERICENTER":"68.5526","OBJECT_NAME":"STARLINK-1186","RCS_SIZE":"LARGE","TLE_LINE2":"2 45099  53.0542 269.5871 0001556  68.5526 291.5629 15.06401092142868","ECCENTRICITY":"0.00015560","GP_ID":"211250710","TLE_LINE1":"1 45099U 20006BH  22241.48943228 -.00000487  00000-0 -13789-4 0  9999","DECAY_DATE":null,"MEAN_MOTION":"15.06401092","SITE":"AFETR","ELEMENT_SET_NO":"999","REF_FRAME":"TEME","MEAN_ELEMENT_THEORY":"SGP4","EPHEMERIS_TYPE":"0","CENTER_NAME":"EARTH","FILE":"3550737","INCLINATION":"53.0542"},{"PERIOD":"95.592","COUNTRY_CODE":"US","TIME_SYSTEM":"UTC","CLASSIFICATION_TYPE":"U","APOAPSIS":"548.220","LAUNCH_DATE":"2020-01-29","RA_OF_ASC_NODE":"270.0496","EPOCH":"2022-08-29T09:16:10.066368","MEAN_MOTION_DDOT":"0.0000000000000","OBJECT_TYPE":"PAYLOAD","NORAD_CAT_ID":"45100","SEMIMAJOR_AXIS":"6925.355","PERIAPSIS":"546.221","BSTAR":"0.00011692000000","REV_AT_EPOCH":"14284","MEAN_MOTION_DOT":"0.00001460","OBJECT_ID":"2020-006BJ","ECCENTRICITY":"0.00014430","GP_ID":"211250960","TLE_LINE2":"2 45100  53.0541 270.0496 0001443  73.8395 286.2753 15.06397783142846","MEAN_ANOMALY":"286.2753","ARG_OF_PERICENTER":"73.8395","OBJECT_NAME":"STARLINK-1193","RCS_SIZE":"LARGE","INCLINATION":"53.0541","FILE":"3550737","SITE":"AFETR","TLE_LINE1":"1 45100U 20006BJ  22241.38622762  .00001460  00000-0  11692-3 0  9998","DECAY_DATE":null,"MEAN_MOTION":"15.06397783","EPHEMERIS_TYPE":"0","CENTER_NAME":"EARTH","ELEMENT_SET_NO":"999","MEAN_ELEMENT_THEORY":"SGP4","REF_FRAME":"TEME"},{"SITE":"AFETR","MEAN_MOTION":"15.06395154","DECAY_DATE":null,"TLE_LINE1":"1 45101U 20006BK  22241.31525108 -.00000242  00000-0  26173-5 0  9998","EPHEMERIS_TYPE":"0","CENTER_NAME":"EARTH","MEAN_ELEMENT_THEORY":"SGP4","REF_FRAME":"TEME","ELEMENT_SET_NO":"999","INCLINATION":"53.0548","FILE":"3550737","OBJECT_NAME":"STARLINK-1194","ARG_OF_PERICENTER":"68.2377","MEAN_ANOMALY":"291.8763","RCS_SIZE":"LARGE","ECCENTRICITY":"0.00014160","GP_ID":"211252210","TLE_LINE2":"2 45101  53.0548 270.3368 0001416  68.2377 291.8763 15.06395154142835","PERIAPSIS":"546.248","SEMIMAJOR_AXIS":"6925.363","MEAN_MOTION_DOT":"-0.00000242","BSTAR":"0.00000261730000","REV_AT_EPOCH":"14283","OBJECT_ID":"2020-006BK","RA_OF_ASC_NODE":"270.3368","LAUNCH_DATE":"2020-01-29","EPOCH":"2022-08-29T07:33:57.693312","MEAN_MOTION_DDOT":"0.0000000000000","OBJECT_TYPE":"PAYLOAD","NORAD_CAT_ID":"45101","CLASSIFICATION_TYPE":"U","APOAPSIS":"548.209","PERIOD":"95.592","COUNTRY_CODE":"US","TIME_SYSTEM":"UTC"},{"TIME_SYSTEM":"UTC","COUNTRY_CODE":"US","PERIOD":"95.592","APOAPSIS":"548.093","CLASSIFICATION_TYPE":"U","OBJECT_TYPE":"PAYLOAD","NORAD_CAT_ID":"45102","MEAN_MOTION_DDOT":"0.0000000000000","EPOCH":"2022-08-29T19:15:56.799072","LAUNCH_DATE":"2020-01-29","RA_OF_ASC_NODE":"268.1677","OBJECT_ID":"2020-006BL","MEAN_MOTION_DOT":"-0.00000129","BSTAR":"0.00001022200000","REV_AT_EPOCH":"14290","PERIAPSIS":"546.342","SEMIMAJOR_AXIS":"6925.352","TLE_LINE2":"2 45102  53.0538 268.1677 0001264  74.6555 285.4574 15.06398803142904","ECCENTRICITY":"0.00012640","GP_ID":"211284792","RCS_SIZE":"LARGE","OBJECT_NAME":"STARLINK-1195","ARG_OF_PERICENTER":"74.6555","MEAN_ANOMALY":"285.4574","FILE":"3551093","INCLINATION":"53.0538","REF_FRAME":"TEME","MEAN_ELEMENT_THEORY":"SGP4","ELEMENT_SET_NO":"999","EPHEMERIS_TYPE":"0","CENTER_NAME":"EARTH","MEAN_MOTION":"15.06398803","DECAY_DATE":null,"TLE_LINE1":"1 45102U 20006BL  22241.80274073 -.00000129  00000-0  10222-4 0  9996","SITE":"AFETR"},{"RCS_SIZE":"LARGE","MEAN_ANOMALY":"270.8847","ARG_OF_PERICENTER":"89.2291","OBJECT_NAME":"STARLINK-1196","GP_ID":"211284543","ECCENTRICITY":"0.00013030","TLE_LINE2":"2 45103  53.0519 269.2071 0001303  89.2291 270.8847 15.06391732142878","CENTER_NAME":"EARTH","EPHEMERIS_TYPE":"0","ELEMENT_SET_NO":"999","MEAN_ELEMENT_THEORY":"SGP4","REF_FRAME":"TEME","SITE":"AFETR","TLE_LINE1":"1 45103U 20006BM  22241.56959367 -.00000511  00000-0 -15439-4 0  9997","DECAY_DATE":null,"MEAN_MOTION":"15.06391732","INCLINATION":"53.0519","FILE":"3551093","APOAPSIS":"548.141","CLASSIFICATION_TYPE":"U","TIME_SYSTEM":"UTC","PERIOD":"95.593","COUNTRY_CODE":"US","OBJECT_ID":"2020-006BM","SEMIMAJOR_AXIS":"6925.374","PERIAPSIS":"546.337","BSTAR":"-0.00001543900000","REV_AT_EPOCH":"14287","MEAN_MOTION_DOT":"-0.00000511","NORAD_CAT_ID":"45103","OBJECT_TYPE":"PAYLOAD","EPOCH":"2022-08-29T13:40:12.893088","LAUNCH_DATE":"2020-01-29","RA_OF_ASC_NODE":"269.2071","MEAN_MOTION_DDOT":"0.0000000000000"},{"TLE_LINE2":"2 45178  53.0555  68.0987 0001293  94.3886 265.7251 15.06397667140666","ECCENTRICITY":"0.00012930","GP_ID":"211283300","MEAN_ANOMALY":"265.7251","ARG_OF_PERICENTER":"94.3886","OBJECT_NAME":"STARLINK-1138","RCS_SIZE":"LARGE","FILE":"3551093","INCLINATION":"53.0555","TLE_LINE1":"1 45178U 20012A   22241.82117499 -.00000887  00000-0 -40635-4 0  9999","MEAN_MOTION":"15.06397667","DECAY_DATE":null,"SITE":"AFETR","ELEMENT_SET_NO":"999","MEAN_ELEMENT_THEORY":"SGP4","REF_FRAME":"TEME","EPHEMERIS_TYPE":"0","CENTER_NAME":"EARTH","COUNTRY_CODE":"US","PERIOD":"95.592","TIME_SYSTEM":"UTC","CLASSIFICATION_TYPE":"U","APOAPSIS":"548.116","MEAN_MOTION_DDOT":"0.0000000000000","LAUNCH_DATE":"2020-02-17","EPOCH":"2022-08-29T19:42:29.519136","RA_OF_ASC_NODE":"68.0987","NORAD_CAT_ID":"45178","OBJECT_TYPE":"PAYLOAD","BSTAR":"-0.00004063500000","REV_AT_EPOCH":"14066","MEAN_MOTION_DOT":"-0.00000887","SEMIMAJOR_AXIS":"6925.356","PERIAPSIS":"546.325","OBJECT_ID":"2020-012A"},{"SITE":"AFETR","TLE_LINE1":"1 45179U 20012B   22241.89025525  .00001363  00000-0  11040-3 0  9990","MEAN_MOTION":"15.06399610","DECAY_DATE":null,"EPHEMERIS_TYPE":"0","CENTER_NAME":"EARTH","ELEMENT_SET_NO":"999","REF_FRAME":"TEME","MEAN_ELEMENT_THEORY":"SGP4","INCLINATION":"53.0556","FILE":"3551093","ARG_OF_PERICENTER":"77.4270","MEAN_ANOMALY":"282.6875","OBJECT_NAME":"STARLINK-1143","RCS_SIZE":"LARGE","GP_ID":"211284049","ECCENTRICITY":"0.00013970","TLE_LINE2":"2 45179  53.0556  67.7644 0001397  77.4270 282.6875 15.06399610140736","SEMIMAJOR_AXIS":"6925.350","PERIAPSIS":"546.247","BSTAR":"0.00011040000000","REV_AT_EPOCH":"14073","MEAN_MOTION_DOT":"0.00001363","OBJECT_ID":"2020-012B","RA_OF_ASC_NODE":"67.7644","LAUNCH_DATE":"2020-02-17","EPOCH":"2022-08-29T21:21:58.053600","MEAN_MOTION_DDOT":"0.0000000000000","OBJECT_TYPE":"PAYLOAD","NORAD_CAT_ID":"45179","CLASSIFICATION_TYPE":"U","APOAPSIS":"548.182","PERIOD":"95.592","COUNTRY_CODE":"US","TIME_SYSTEM":"UTC"},{"TLE_LINE1":"1 45180U 20012C   22241.50294559  .00009878  00000-0  59768-3 0  9993","MEAN_MOTION":"15.11225325","DECAY_DATE":null,"SITE":"AFETR","ELEMENT_SET_NO":"999","MEAN_ELEMENT_THEORY":"SGP4","REF_FRAME":"TEME","EPHEMERIS_TYPE":"0","CENTER_NAME":"EARTH","FILE":"3550737","INCLINATION":"53.0508","MEAN_ANOMALY":"227.5587","ARG_OF_PERICENTER":"132.5498","OBJECT_NAME":"STARLINK-1192","RCS_SIZE":"LARGE","TLE_LINE2":"2 45180  53.0508  66.1917 0001106 132.5498 227.5587 15.11225325140728","GP_ID":"211251925","ECCENTRICITY":"0.00011060","REV_AT_EPOCH":"14072","BSTAR":"0.00059768000000","MEAN_MOTION_DOT":"0.00009878","SEMIMAJOR_AXIS":"6910.599","PERIAPSIS":"531.700","OBJECT_ID":"2020-012C","MEAN_MOTION_DDOT":"0.0000000000000","LAUNCH_DATE":"2020-02-17","RA_OF_ASC_NODE":"66.1917","EPOCH":"2022-08-29T12:04:14.498976","NORAD_CAT_ID":"45180","OBJECT_TYPE":"PAYLOAD","CLASSIFICATION_TYPE":"U","APOAPSIS":"533.228","COUNTRY_CODE":"US","PERIOD":"95.287","TIME_SYSTEM":"UTC"},{"ECCENTRICITY":"0.00014610","GP_ID":"211285050","TLE_LINE2":"2 45181  53.0556  67.8502 0001461  87.9585 272.1571 15.06395546140731","OBJECT_NAME":"STARLINK-1200","MEAN_ANOMALY":"272.1571","ARG_OF_PERICENTER":"87.9585","RCS_SIZE":"LARGE","INCLINATION":"53.0556","FILE":"3551093","SITE":"AFETR","MEAN_MOTION":"15.06395546","DECAY_DATE":null,"TLE_LINE1":"1 45181U 20012D   22241.87646536 -.00000692  00000-0 -27551-4 0  9993","EPHEMERIS_TYPE":"0","CENTER_NAME":"EARTH","MEAN_ELEMENT_THEORY":"SGP4","REF_FRAME":"TEME","ELEMENT_SET_NO":"999","PERIOD":"95.592","COUNTRY_CODE":"US","TIME_SYSTEM":"UTC","CLASSIFICATION_TYPE":"U","APOAPSIS":"548.239","LAUNCH_DATE":"2020-02-17","EPOCH":"2022-08-29T21:02:06.607104","RA_OF_ASC_NODE":"67.8502","MEAN_MOTION_DDOT":"0.0000000000000","OBJECT_TYPE":"PAYLOAD","NORAD_CAT_ID":"45181","PERIAPSIS":"546.215","SEMIMAJOR_AXIS":"6925.362","MEAN_MOTION_DOT":"-0.00000692","BSTAR":"-0.00002755100000","REV_AT_EPOCH":"14073","OBJECT_ID":"2020-012D"}];
